[Satellite]
VERSION=1.1
NAME=CZ-4B R/B
NICKNAME=CZ-4B R/B
TLE1=1 28415U 04035C   22342.38166381  .00003622  00000+0  22683-3 0  9997
TLE2=2 28415  97.4956  18.9579 0050156 142.3926 218.0828 15.08952580999813
STATUS=0
